ONEWEB-0068             
1 45446U 20020Y   26163.27034724  .00000041  00000+0  78695-4 0  9997
2 45446  87.8901  22.0422 0001775  77.9673 282.1654 13.11419244301955
ONEWEB-0046             
1 45447U 20020Z   26163.10939958 -.00000409  00000+0 -11889-2 0  9993
2 45447  87.8893  22.0807 0002029  79.4188 280.7169 13.11417981301944
ONEWEB-0063             
1 45448U 20020AA  26163.13837503  .00000634  00000+0  17536-2 0  9993
2 45448  87.8900  22.0731 0002119  87.0714 273.0657 13.11418672302036
ONEWEB-0019             
1 45449U 20020AB  26163.10078848 -.00000519  00000+0 -15005-2 0  9993
2 45449  87.8893  22.0676 0001685  88.2987 271.8334 13.11417685301870
ONEWEB-0094             
1 45450U 20020AC  26163.26707613  .00000048  00000+0  90244-4 0  9996
2 45450  87.9146   6.8273 0001642  83.7529 276.3790 13.17647604305661
ONEWEB-0087             
1 45451U 20020AD  26163.14827306  .00000309  00000+0  83516-3 0  9999
2 45451  87.8908  22.0448 0001724  75.2072 284.9247 13.11415752301929
ONEWEB-0082             
1 45452U 20020AE  26163.14489453  .00000461  00000+0  12656-2 0  9992
2 45452  87.8899  22.0624 0001959  70.6364 289.4976 13.11416721302015
ONEWEB-0050             
1 45453U 20020AF  26163.24105458  .00002162  00000+0  22011-3 0  9991
2 45453  88.9298 233.8815 0003860  39.2604 320.8904 14.90362079339640
ONEWEB-0034             
1 45454U 20020AG  26163.10616068 -.00000458  00000+0 -13282-2 0  9998
2 45454  87.8898  22.0800 0000877  81.3441 278.7786 13.11428222301923
ONEWEB-0060             
1 45455U 20020AH  26163.13738960  .00000571  00000+0  15742-2 0  9995
2 45455  87.8892  22.0717 0001519  50.1615 309.9647 13.11417354301888
ONEWEB-0086             
1 45456U 20020AJ  26163.11605252  .00000074  00000+0  17271-3 0  9999
2 45456  87.8900  22.0712 0001089  72.6800 287.4448 13.11417361301945
ONEWEB-0088             
1 45457U 20020AK  26163.17044253 -.00000466  00000+0 -13495-2 0  9994
2 45457  87.8909  22.0327 0002208  81.2201 278.9177 13.11417388301888
ONEWEB-0102             
1 47258U 20100A   26163.25477410 -.00000216  00000+0 -63517-3 0  9992
2 47258  87.8939 351.6568 0001547  95.7073 264.4232 13.12445597264088
ONEWEB-0109             
1 47259U 20100B   26163.26325253  .00000031  00000+0  51453-4 0  9991
2 47259  87.8947 351.6380 0001778  95.2026 264.9306 13.12444795263916
ONEWEB-0110             
1 47260U 20100C   26163.06164968  .00000324  00000+0  86520-3 0  9992
2 47260  87.8948 351.6623 0001543  86.2224 273.9081 13.12443336264055
ONEWEB-0111             
1 47261U 20100D   26163.24460517 -.00000426  00000+0 -12210-2 0  9991
2 47261  87.8947 351.6446 0001790  86.7572 273.3762 13.12441173263914
ONEWEB-0114             
1 47262U 20100E   26163.27511407  .00000382  00000+0  10259-2 0  9990
2 47262  87.8947 351.6360 0001990  96.7068 263.4287 13.12444451263872
ONEWEB-0117             
1 47263U 20100F   26163.26664642  .00000159  00000+0  40671-3 0  9994
2 47263  87.8946 351.6288 0001769  90.0768 270.0563 13.12443674263887
ONEWEB-0118             
1 47264U 20100G   26163.22428687  .00000048  00000+0  98465-4 0  9990
2 47264  87.8946 351.6396 0002114  92.6767 267.4603 13.12442124264076
ONEWEB-0119             
1 47265U 20100H   26163.24970032 -.00000356  00000+0 -10248-2 0  9994
2 47265  87.8937 351.6521 0001820  90.8928 269.2410 13.12443626264051
ONEWEB-0120             
1 47266U 20100J   26163.27356555  .00000338  00000+0  90452-3 0  9990
2 47266  87.8936 351.6485 0001803  95.9746 264.1588 13.12444026264083
ONEWEB-0121             
1 47267U 20100K   26163.03284936  .00000070  00000+0  16036-3 0  9997
2 47267  87.8949 351.6818 0001781  79.5170 280.6160 13.12444596263969
ONEWEB-0122             
1 47268U 20100L   26163.25563701 -.00000207  00000+0 -61201-3 0  9990
2 47268  87.8950 351.6418 0001691  94.0762 266.0560 13.12443862263908
ONEWEB-0123             
1 47269U 20100M   26163.25139340 -.00000311  00000+0 -90075-3 0  9996
2 47269  87.8938 351.6507 0001920  90.8875 269.2473 13.12444508264040
ONEWEB-0124             
1 47270U 20100N   26163.24122677 -.00000475  00000+0 -13569-2 0  9995
2 47270  87.8936 351.6557 0001807  86.5647 273.5688 13.12443570263928
ONEWEB-0125             
1 47271U 20100P   26163.21920263  .00000183  00000+0  47284-3 0  9996
2 47271  87.8948 351.6427 0002007  82.4771 277.6586 13.12443660263982
ONEWEB-0126             
1 47272U 20100Q   26163.23967716 -.00000401  00000+0 -11503-2 0  9992
2 47272  87.8941 351.6546 0001841  93.7762 266.3577 13.12442277264055
ONEWEB-0127             
1 47273U 20100R   26163.05317910  .00000463  00000+0  12521-2 0  9995
2 47273  87.8935 351.6909 0001781  94.1636 265.9696 13.12443850264055
ONEWEB-0128             
1 47274U 20100S   26163.22767084 -.00000082  00000+0 -26297-3 0  9991
2 47274  87.8935 351.6699 0001516  84.8220 275.3081 13.12441986264098
ONEWEB-0129             
1 47275U 20100T   26163.05487758  .00000417  00000+0  11227-2 0  9996
2 47275  87.8947 351.6776 0002185 120.9619 239.1725 13.12442656264004
